[{"OBJECT_NAME":"NUSAT-35 (WILLIAMINA)","OBJECT_ID":"2023-001AR","EPOCH":"2026-03-09T22:28:40.425600","MEAN_MOTION":15.3245616,"ECCENTRICITY":0.00136635,"INCLINATION":97.1993,"RA_OF_ASC_NODE":124.278,"ARG_OF_PERICENTER":97.0313,"MEAN_ANOMALY":263.2484,"EPHEMERIS_TYPE":0,"CLASSIFICATION_TYPE":"U","NORAD_CAT_ID":55048,"ELEMENT_SET_NO":999,"REV_AT_EPOCH":17719,"BSTAR":0.00053479647,"MEAN_MOTION_DOT":0.0001675,"MEAN_MOTION_DDOT":0},{"OBJECT_NAME":"STARLINK-34237","OBJECT_ID":"2025-113AA","EPOCH":"2026-03-09T11:23:47.980896","MEAN_MOTION":15.30196237,"ECCENTRICITY":0.00011886,"INCLINATION":53.1588,"RA_OF_ASC_NODE":92.021,"ARG_OF_PERICENTER":74.795,"MEAN_ANOMALY":285.3182,"EPHEMERIS_TYPE":0,"CLASSIFICATION_TYPE":"U","NORAD_CAT_ID":64194,"ELEMENT_SET_NO":999,"REV_AT_EPOCH":4499,"BSTAR":0.0010943383,"MEAN_MOTION_DOT":0.00032189,"MEAN_MOTION_DDOT":0}]
